1 42048U 17008DE  20196.92140304  .00001068  00000-0  43807-4 0  9996
2 42048  97.3671 264.5985 0007753 187.5161 172.5963 15.26387620188935
1 42048U 17008DE  20197.44585440  .00000993  00000-0  40938-4 0  9996
2 42048  97.3671 265.1157 0007815 185.6530 174.4621 15.26388222189012
1 42048U 17008DE  20197.90474907  .00000981  00000-0  40484-4 0  9995
2 42048  97.3671 265.5683 0007865 184.0322 176.0854 15.26389026189083
1 42048U 17008DE  20198.49475664  .00000859  00000-0  35781-4 0  9999
2 42048  97.3671 266.1501 0007934 181.9222 178.1988 15.26389311189179
1 42048U 17008DE  20199.28143241  .00000862  00000-0  35880-4 0  9994
2 42048  97.3671 266.9260 0008018 179.1863 180.9390 15.26390633189293
1 42048U 17008DE  20199.74032660  .00000805  00000-0  33717-4 0  9991
2 42048  97.3671 267.3786 0008066 177.5925 182.5354 15.26390977189362
1 42048U 17008DE  20200.46144448  .00000796  00000-0  33358-4 0  9991
2 42048  97.3671 268.0897 0008142 175.1839 184.9480 15.26392263189474
1 42048U 17008DE  20200.92033707  .00000817  00000-0  34171-4 0  9995
2 42048  97.3669 268.5421 0008214 173.5623 186.5723 15.26393348189543
1 42048U 17008DE  20200.98589266  .00000879  00000-0  36525-4 0  9990
2 42048  97.3670 268.6069 0008210 173.4087 186.7261 15.26393969189552
1 42048U 17008DE  20201.44478486  .00000928  00000-0  38436-4 0  9991
2 42048  97.3670 269.0594 0008267 171.8954 188.2419 15.26395256189628
1 42048U 17008DE  20201.90367709  .00000922  00000-0  38183-4 0  9990
2 42048  97.3670 269.5120 0008316 170.3391 189.8009 15.26396155189690
1 42048U 17008DE  20202.16590131  .00000909  00000-0  37682-4 0  9994
2 42048  97.3669 269.7706 0008344 169.4601 190.6814 15.26396567189730
1 42048U 17008DE  20202.42812533  .00000904  00000-0  37508-4 0  9998
2 42048  97.3670 270.0292 0008377 168.5621 191.5809 15.26397032189771
1 42048U 17008DE  20202.88701741  .00000858  00000-0  35728-4 0  9996
2 42048  97.3669 270.4818 0008422 167.0163 193.1295 15.26397572189847
1 42048U 17008DE  20203.21479719  .00000854  00000-0  35569-4 0  9990
2 42048  97.3669 270.8050 0008453 165.9470 194.2005 15.26398169189890
1 42048U 17008DE  20203.93591226  .00000816  00000-0  34126-4 0  9993
2 42048  97.3669 271.5162 0008530 163.5855 196.5662 15.26399278190000
1 42048U 17008DE  20204.46035860  .00000883  00000-0  36678-4 0  9997
2 42048  97.3669 272.0334 0008576 161.9290 198.2255 15.26400797190086
1 42048U 17008DE  20204.91924824  .00000936  00000-0  38720-4 0  9993
2 42048  97.3667 272.4859 0008636 160.3472 199.8101 15.26402318190158
1 42048U 17008DE  20205.31258188  .00001104  00000-0  45178-4 0  9994
2 42048  97.3667 272.8739 0008669 159.2256 200.9336 15.26404293190217
1 42048U 17008DE  20205.96813868  .00001070  00000-0  43856-4 0  9990
2 42048  97.3667 273.5203 0008729 157.0624 203.1006 15.26405505190310
1 42048U 17008DE  20206.42702821  .00001090  00000-0  44639-4 0  9990
2 42048  97.3666 273.9729 0008775 155.5713 204.5943 15.26406525190384
1 42048U 17008DE  20207.14813877  .00001188  00000-0  48404-4 0  9996
2 42048  97.3666 274.6840 0008834 153.2638 206.9058 15.26408755190495
1 42048U 17008DE  20207.73813540  .00001472  00000-0  59285-4 0  9993
2 42048  97.3665 275.2659 0008887 151.4041 208.7686 15.26412441190589
1 42048U 17008DE  20208.45924218  .00001640  00000-0  65738-4 0  9995
2 42048  97.3664 275.9769 0008961 149.2126 210.9640 15.26415827190697
1 42048U 17008DE  20208.91812922  .00001493  00000-0  60073-4 0  9997
2 42048  97.3663 276.4294 0009014 147.8541 212.3249 15.26416222190769
1 42048U 17008DE  20209.44257035  .00001468  00000-0  59111-4 0  9997
2 42048  97.3664 276.9466 0009061 146.2457 213.9360 15.26417690190847
1 42048U 17008DE  20209.63923548  .00001479  00000-0  59544-4 0  9999
2 42048  97.3664 277.1406 0009077 145.6479 214.5349 15.26418441190870
1 42048U 17008DE  20209.83590089  .00001442  00000-0  58122-4 0  9992
2 42048  97.3663 277.3345 0009091 145.0163 215.1675 15.26418768190908
1 42048U 17008DE  20210.42589592  .00001431  00000-0  57704-4 0  9999
2 42048  97.3663 277.9163 0009141 143.1377 217.0492 15.26420566190990
1 42048U 17008DE  20211.14700082  .00001284  00000-0  52041-4 0  9993
2 42048  97.3662 278.6275 0009197 140.9603 219.2301 15.26421727191106
1 42048U 17008DE  20211.27811078  .00001240  00000-0  50346-4 0  9993
2 42048  97.3662 278.7567 0009212 140.5603 219.6308 15.26421824191126
1 42048U 17008DE  20212.45809856  .00001091  00000-0  44629-4 0  9996
2 42048  97.3662 279.9203 0009312 137.0226 223.1742 15.26424090191309
1 42048U 17008DE  20212.72031807  .00001025  00000-0  42107-4 0  9995
2 42048  97.3662 280.1789 0009329 136.2923 223.9056 15.26424324191345
1 42048U 17008DE  20213.44142093  .00000934  00000-0  38602-4 0  9998
2 42048  97.3662 280.8899 0009378 134.1495 226.0516 15.26425374191452
1 42048U 17008DE  20213.70363979  .00000929  00000-0  38408-4 0  9993
2 42048  97.3662 281.1485 0009395 133.3869 226.8154 15.26425938191498
1 42048U 17008DE  20213.83474923  .00001023  00000-0  42036-4 0  9997
2 42048  97.3661 281.2777 0009396 132.9114 227.2915 15.26426703191515
1 42048U 17008DE  20214.16252293  .00000979  00000-0  40342-4 0  9995
2 42048  97.3662 281.6010 0009419 131.9416 228.2627 15.26427055191567
1 42048U 17008DE  20214.75251368  .00001090  00000-0  44608-4 0  9996
2 42048  97.3662 282.1827 0009460 130.1545 230.0524 15.26429144191657
1 42048U 17008DE  20215.14584070  .00001210  00000-0  49203-4 0  9999
2 42048  97.3661 282.5706 0009478 128.9647 231.2437 15.26430741191711
1 42048U 17008DE  20215.67027658  .00001250  00000-0  50712-4 0  9992
2 42048  97.3661 283.0878 0009500 127.3900 232.8205 15.26432205191793
1 42048U 17008DE  20216.12915736  .00001298  00000-0  52569-4 0  9990
2 42048  97.3661 283.5403 0009526 126.0712 234.1411 15.26433650191864
1 42048U 17008DE  20216.32582062  .00001327  00000-0  53669-4 0  9999
2 42048  97.3661 283.7342 0009536 125.4896 234.7233 15.26434269191893
1 42048U 17008DE  20216.85025570  .00001313  00000-0  53152-4 0  9995
2 42048  97.3660 284.2513 0009561 123.9005 236.3145 15.26435464191978
1 42048U 17008DE  20217.17802712  .00001378  00000-0  55624-4 0  9999
2 42048  97.3660 284.5745 0009574 122.9566 237.2595 15.26436711192025
1 42048U 17008DE  20217.44024393  .00001423  00000-0  57360-4 0  9990
2 42048  97.3660 284.8331 0009590 122.1798 238.0372 15.26437731192065
1 42048U 17008DE  20217.83356959  .00001338  00000-0  54097-4 0  9998
2 42048  97.3659 285.2210 0009608 120.9761 239.2423 15.26438246192129
1 42048U 17008DE  20218.29244776  .00001436  00000-0  57843-4 0  9993
2 42048  97.3659 285.6735 0009637 119.6749 240.5451 15.26440362192193
1 42048U 17008DE  20218.88243308  .00001557  00000-0  62473-4 0  9997
2 42048  97.3658 286.2554 0009654 117.8973 242.3244 15.26443144192287
1 42048U 17008DE  20219.27575641  .00001624  00000-0  65038-4 0  9994
2 42048  97.3658 286.6433 0009655 116.7808 243.4419 15.26444913192341
1 42048U 17008DE  20220.12795628  .00001608  00000-0  64411-4 0  9995
2 42048  97.3656 287.4835 0009691 114.2961 245.9291 15.26447710192474
1 42048U 17008DE  20220.32461776  .00001604  00000-0  64251-4 0  9999
2 42048  97.3656 287.6774 0009707 113.7090 246.5168 15.26448301192504
1 42048U 17008DE  20220.84904779  .00001510  00000-0  60675-4 0  9993
2 42048  97.3655 288.1945 0009715 112.1154 248.1117 15.26449472192582
1 42048U 17008DE  20221.17681586  .00001542  00000-0  61888-4 0  9990
2 42048  97.3655 288.5178 0009716 111.1779 249.0498 15.26450817192630
1 42048U 17008DE  20221.43902972  .00001587  00000-0  63616-4 0  9994
2 42048  97.3655 288.7762 0009733 110.4500 249.7785 15.26452118192670
1 42048U 17008DE  20221.83235065  .00001604  00000-0  64246-4 0  9990
2 42048  97.3654 289.1639 0009767 109.3533 250.8763 15.26453681192739
1 42048U 17008DE  20222.42233166  .00001596  00000-0  63942-4 0  9998
2 42048  97.3653 289.7457 0009784 107.6823 252.5484 15.26455694192829
1 42048U 17008DE  20222.75009843  .00001634  00000-0  65386-4 0  9994
2 42048  97.3653 290.0689 0009779 106.6983 253.5329 15.26457094192871
1 42048U 17008DE  20223.27452572  .00001531  00000-0  61453-4 0  9990
2 42048  97.3652 290.5859 0009788 105.1989 255.0333 15.26458188192950
1 42048U 17008DE  20223.86450541  .00001452  00000-0  58429-4 0  9990
2 42048  97.3651 291.1676 0009796 103.4903 256.7428 15.26459658193046
1 42048U 17008DE  20224.12671837  .00001417  00000-0  57083-4 0  9999
2 42048  97.3651 291.4262 0009805 102.8626 257.3709 15.26460292193085
1 42048U 17008DE  20224.91335744  .00001246  00000-0  50521-4 0  9990
2 42048  97.3650 292.2017 0009819 100.6836 259.5509 15.26461432193208
1 42048U 17008DE  20225.17557010  .00001210  00000-0  49148-4 0  9995
2 42048  97.3650 292.4602 0009819  99.8822 260.3526 15.26461956193248
1 42048U 17008DE  20225.43778250  .00001200  00000-0  48757-4 0  9999
2 42048  97.3650 292.7188 0009826  99.1943 261.0407 15.26462617193280
1 42048U 17008DE  20225.83110151  .00001092  00000-0  44612-4 0  9998
2 42048  97.3650 293.1066 0009825  98.0591 262.1763 15.26462927193344
1 42048U 17008DE  20226.15886684  .00001066  00000-0  43628-4 0  9992
2 42048  97.3650 293.4298 0009826  97.0875 263.1481 15.26463630193394
1 42048U 17008DE  20226.28997307  .00001059  00000-0  43338-4 0  9991
2 42048  97.3650 293.5591 0009827  96.7221 263.5136 15.26463864193416
1 42048U 17008DE  20226.74884451  .00001027  00000-0  42126-4 0  9996
2 42048  97.3650 294.0115 0009830  95.3912 264.8448 15.26464703193480
1 42048U 17008DE  20227.46992773  .00000982  00000-0  40381-4 0  9993
2 42048  97.3649 294.7224 0009833  93.3209 266.9155 15.26465926193594
1 42048U 17008DE  20228.32211574  .00000965  00000-0  39762-4 0  9994
2 42048  97.3648 295.5627 0009802  90.8313 269.4049 15.26467599193726
1 42048U 17008DE  20228.78098557  .00000984  00000-0  40472-4 0  9999
2 42048  97.3648 296.0151 0009803  89.5348 270.7014 15.26468710193798
1 42048U 17008DE  20229.43651257  .00001101  00000-0  44934-4 0  9993
2 42048  97.3649 296.6615 0009788  87.6404 272.5955 15.26471025193892
